{
    "type": "FeatureCollection",
    "features": [
        {
            "type": "Feature",
            "geometry": {
                "type": "Polygon",
                "coordinates": [
                    [
                        [99.8030, 20.2120],
                        [100.1400, 20.2120],
                        [100.1400, 20.4400],
                        [99.8030, 20.4400],
                        [99.8030, 20.2120]
                    ]
                ]
            },
            "properties": {
                "name": "Chiang Rai"
            }
        }
    ]
}
